        "tle_line2": '2 32289  97.9541 126.3657 0001615  81.5659 278.5758 14.81238942779498',
        "epoch_iso": '2022-04-13T22:59:52.893312Z',
        "inclination_deg": '97.954100',
        "eccentricity": '0.00016150',
        "mean_motion_rev_per_day": '14.81238942',
        "altitude_m": '625416.123',
    },
    {
        "name": 'SKYMED 2',
        "norad_catalog_id": '32376',
        "tle_line1": '1 32376U 07059A   22104.09800165 -.00003124  00000-0 -38623-3 0  9997',
        "tle_line2": '2 32376  97.8878 288.6854 0001369 100.8916 259.2477 14.82141272776171',
        "epoch_iso": '2022-04-14T02:21:07.342560Z',
        "inclination_deg": '97.887800',
        "eccentricity": '0.00013690',
        "mean_motion_rev_per_day": '14.82141272',
        "altitude_m": '622573.318',
    },
    {
        "name": 'RADARSAT 2',
        "norad_catalog_id": '32382',
        "tle_line1": '1 32382U 07061A   22103.96446347  .00000071  00000-0  44475-4 0  9999',
        "tle_line2": '2 32382  98.5780 111.8357 0001235  95.1155 321.9838 14.29984538748084',
        "epoch_iso": '2022-04-13T23:08:49.643808Z',
        "inclination_deg": '98.578000',
        "eccentricity": '0.00012350',
        "mean_motion_rev_per_day": '14.29984538',
        "altitude_m": '791782.510',
    },
    {
        "name": 'CARTOSAT 2A',
        "norad_catalog_id": '32783',
        "tle_line1": '1 32783U 08021A   22103.92971839  .00000607  00000-0  89863-4 0  9991',
        "tle_line2": '2 32783  97.9718 164.7924 0013040  23.0150 337.1652 14.78665384753484',
        "epoch_iso": '2022-04-13T22:18:47.668896Z',
        "inclination_deg": '97.971800',
        "eccentricity": '0.00130400',
        "mean_motion_rev_per_day": '14.78665384',
        "altitude_m": '633540.037',
    },
    {
        "name": 'HJ-1A',
        "norad_catalog_id": '33320',
        "tle_line1": '1 33320U 08041A   22104.09721041  .00000550  00000-0  83058-4 0  9995',
        "tle_line2": '2 33320  97.6850 140.1531 0022673  81.7834 278.5951 14.77783355732889',
        "epoch_iso": '2022-04-14T02:19:58.979424Z',
        "inclination_deg": '97.685000',
        "eccentricity": '0.00226730',
        "mean_motion_rev_per_day": '14.77783355',
        "altitude_m": '636329.750',
    },
    {
        "name": 'HJ-1B',
        "norad_catalog_id": '33321',
        "tle_line1": '1 33321U 08041B   22103.90184693  .00001221  00000-0  17588-3 0  9991',
        "tle_line2": '2 33321  97.7030 143.4019 0035977  99.5853 260.9418 14.77599637732855',
        "epoch_iso": '2022-04-13T21:38:39.574752Z',
        "inclination_deg": '97.703000',
        "eccentricity": '0.00359770',
        "mean_motion_rev_per_day": '14.77599637',
        "altitude_m": '636911.169',
    },
    {
        "name": 'GEOEYE 1',
        "norad_catalog_id": '33331',
        "tle_line1": '1 33331U 08042A   22103.86476163  .00000380  00000-0  80711-4 0  9998',
        "tle_line2": '2 33331  98.1141 179.7679 0010257 116.0184 244.2051 14.64456941726918',
        "epoch_iso": '2022-04-13T20:45:15.404832Z',
        "inclination_deg": '98.114100',
        "eccentricity": '0.00102570',
        "mean_motion_rev_per_day": '14.64456941',
        "altitude_m": '678819.442',
    },
    {
        "name": 'THEOS',
        "norad_catalog_id": '33396',
        "tle_line1": '1 33396U 08049A   22104.10879844  .00000117  00000-0  75434-4 0  9991',
        "tle_line2": '2 33396  98.7536 172.5548 0001350  96.2819  13.1884 14.20032936701531',
        "epoch_iso": '2022-04-14T02:36:40.185216Z',
        "inclination_deg": '98.753600',
        "eccentricity": '0.00013500',
        "mean_motion_rev_per_day": '14.20032936',
        "altitude_m": '825241.407',
    },
    {
        "name": 'SKYMED 3',
        "norad_catalog_id": '33412',
        "tle_line1": '1 33412U 08054A   22103.94610422 -.00000192  00000-0 -17504-4 0  9991',
        "tle_line2": '2 33412  97.8874 288.5347 0001395 101.2267 258.9126 14.82151240728617',
        "epoch_iso": '2022-04-13T22:42:23.404608Z',
        "inclination_deg": '97.887400',
        "eccentricity": '0.00013950',
        "mean_motion_rev_per_day": '14.82151240',
        "altitude_m": '622541.930',
    },
    {
        "name": 'YAOGAN-4',
        "norad_catalog_id": '33446',
        "tle_line1": '1 33446U 08061A   22103.83077163  .00000608  00000-0  92529-4 0  9993',
        "tle_line2": '2 33446  97.8120  45.9500 0015931 348.9610  11.1249 14.77294451720058',
        "epoch_iso": '2022-04-13T19:56:18.668832Z',
        "inclination_deg": '97.812000',
        "eccentricity": '0.00159310',
        "mean_motion_rev_per_day": '14.77294451',
        "altitude_m": '637877.269',
    },
    {
        "name": 'GOSAT (IBUKI)',
        "norad_catalog_id": '33492',
        "tle_line1": '1 33492U 09002A   22104.18764519 -.00000021  00000-0  48371-5 0  9994',
        "tle_line2": '2 33492  98.1059 217.5324 0001639 102.6948 257.4439 14.67528321708253',
        "epoch_iso": '2022-04-14T04:30:12.544416Z',
        "inclination_deg": '98.105900',
        "eccentricity": '0.00016390',
        "mean_motion_rev_per_day": '14.67528321',
        "altitude_m": '668969.700',
    },
    {
        "name": 'DEIMOS 1',
        "norad_catalog_id": '35681',
        "tle_line1": '1 35681U 09041A   22104.09243649  .00000326  00000-0  59255-4 0  9994',
        "tle_line2": '2 35681  97.7223 318.4502 0002962  83.9886 276.1660 14.72007003682300',
        "epoch_iso": '2022-04-14T02:13:06.512736Z',
        "inclination_deg": '97.722300',
        "eccentricity": '0.00029620',
        "mean_motion_rev_per_day": '14.72007003',
        "altitude_m": '654668.239',
    },
    {
        "name": 'DUBAISAT 1',
        "norad_catalog_id": '35682',
        "tle_line1": '1 35682U 09041B   22104.00907486  .00000844  00000-0  15144-3 0  9995',
        "tle_line2": '2 35682  97.7932 260.1647 0010142 279.5253  80.4798 14.69095543680826',
        "epoch_iso": '2022-04-14T00:13:04.067904Z',
        "inclination_deg": '97.793200',
        "eccentricity": '0.00101420',
        "mean_motion_rev_per_day": '14.69095543',
        "altitude_m": '663956.935',
    },
    {
        "name": 'OCEANSAT 2',
        "norad_catalog_id": '35931',
        "tle_line1": '1 35931U 09051A   22103.82448726 -.00015134  00000-0 -41702-2 0  9997',
        "tle_line2": '2 35931  98.2866 199.9341 0001450 283.0600  77.0432 14.46886274664860',
        "epoch_iso": '2022-04-13T19:47:15.699264Z',
        "inclination_deg": '98.286600',
        "eccentricity": '0.00014500',
        "mean_motion_rev_per_day": '14.46886274',
        "altitude_m": '735836.507',
    },
    {
        "name": 'WORLDVIEW 2',
        "norad_catalog_id": '35946',
        "tle_line1": '1 35946U 09055A   22103.89762544  .00000090  00000-0  44515-4 0  9991',
        "tle_line2": '2 35946  98.4897 179.8469 0001596 140.3324 219.7967 14.37651744656635',
        "epoch_iso": '2022-04-13T21:32:34.838016Z',
        "inclination_deg": '98.489700',
        "eccentricity": '0.00015960',
        "mean_motion_rev_per_day": '14.37651744',
        "altitude_m": '766267.647',
    },
    {
        "name": 'SMOS',
        "norad_catalog_id": '36036',
        "tle_line1": '1 36036U 09059A   22104.09466275  .00000230  00000-0  87277-4 0  9999',
        "tle_line2": '2 36036  98.4446 292.5456 0000991  86.5390 273.5911 14.39765799654146',
        "epoch_iso": '2022-04-14T02:16:18.861600Z',
        "inclination_deg": '98.444600',
        "eccentricity": '0.00009910',
        "mean_motion_rev_per_day": '14.39765799',
        "altitude_m": '759272.360',
    },
    {
        "name": 'YAOGAN-7',
        "norad_catalog_id": '36110',
        "tle_line1": '1 36110U 09069A   22104.09844492  .00000389  00000-0  65569-4 0  9999',
        "tle_line2": '2 36110  98.2081 322.9554 0023902 252.7839 107.0762 14.75071746664655',
        "epoch_iso": '2022-04-14T02:21:45.641088Z',
        "inclination_deg": '98.208100',
        "eccentricity": '0.00239020',
        "mean_motion_rev_per_day": '14.75071746',
        "altitude_m": '644923.533',
    },
    {
        "name": 'TANDEM X',
        "norad_catalog_id": '36605',
        "tle_line1": '1 36605U 10030A   22103.30450593 -.00000723  00000-0 -31227-4 0  9994',
        "tle_line2": '2 36605  97.4460 111.8247 0002154  67.0796  27.1218 15.19144871654976',
        "epoch_iso": '2022-04-13T07:18:29.312352Z',
        "inclination_deg": '97.446000',
        "eccentricity": '0.00021540',
        "mean_motion_rev_per_day": '15.19144871',
        "altitude_m": '508423.706',
    },
    {
        "name": 'CARTOSAT 2B',
        "norad_catalog_id": '36795',
        "tle_line1": '1 36795U 10035A   22103.90032200  .00000739  00000-0  10770-3 0  9990',
        "tle_line2": '2 36795  97.9666 164.9496 0015056  92.6698 267.6220 14.78667817634521',
        "epoch_iso": '2022-04-13T21:36:27.820800Z',
        "inclination_deg": '97.966600',
        "eccentricity": '0.00150560',
        "mean_motion_rev_per_day": '14.78667817',
        "altitude_m": '633532.346',
    },
    {
        "name": 'YAOGAN-10',
        "norad_catalog_id": '36834',
        "tle_line1": '1 36834U 10038A   22103.95936984  .00000611  00000-0  85270-4 0  9991',
        "tle_line2": '2 36834  97.9792 115.0785 0001565  75.6549 284.4835 14.81200096631239',
        "epoch_iso": '2022-04-13T23:01:29.554176Z',
        "inclination_deg": '97.979200',
        "eccentricity": '0.00015650',
        "mean_motion_rev_per_day": '14.81200096',
        "altitude_m": '625538.573',
    },
    {
        "name": 'SKYMED 4',
        "norad_catalog_id": '37216',
        "tle_line1": '1 37216U 10060A   22104.04315157  .00000349  00000-0  50426-4 0  9998',
        "tle_line2": '2 37216  97.8878 288.6318 0001390  73.9263 286.2090 14.82160314618717',
        "epoch_iso": '2022-04-14T01:02:08.295648Z',
        "inclination_deg": '97.887800',
        "eccentricity": '0.00013900',
        "mean_motion_rev_per_day": '14.82160314',
        "altitude_m": '622513.357',
    },
    {
